[{"OBJECT_ID":"2003-013A","OBJECT_NAME":"INSAT 3A","NORAD_CAT_ID":"27714","OBJECT_TYPE":"PAYLOAD","PERIOD":"1436.076","INCLINATION":"0.0637","APOGEE":"35810.707","PERIGEE":"35761.696","ECCENTRICITY":"0.0005812","MEAN_MOTION":"1.00273194","TLE_LINE1":"1 27714U 03013A   16238.95394581 -.00000286 +00000-0 +00000-0 0  9999","TLE_LINE2":"2 27714 000.0637 273.6428 0005812 201.8514 296.0580 01.00273194048962","LAUNCH_DATE":"2003-04-09","LAUNCH_SITE":"FRENCH GUIANA","OWNER":"INDIA","ORBIT_TYPE":"Geosynchronous","OPERATIONAL_STATUS":"Operational","satInfo":{"lng":56.75749277579773,"lat":-0.37506175139692405,"elevation":-8.938028390834988,"azimuth":258.2425072242022,"range":42692.19447161086,"height":35796.54729833899,"velocity":3.0739831839019387},"x":214,"y":-143,"dx":1.6851079693986337,"dy":2.570949969637899,"maxAlt":257,"minAlt":256},{"OBJECT_ID":"2003-013B","OBJECT_NAME":"GALAXY 12","NORAD_CAT_ID":"27715","OBJECT_TYPE":"PAYLOAD","PERIOD":"1436.087","INCLINATION":"0.0631","APOGEE":"35797.477","PERIGEE":"35775.349","ECCENTRICITY":"0.0002624","MEAN_MOTION":"1.00272441","TLE_LINE1":"1 27715U 03013B   16239.41313241  .00000030  00000-0  00000+0 0  9991","TLE_LINE2":"2 27715   0.0631 270.2521 0002624 271.7312 172.8168  1.00272441 49096","LAUNCH_DATE":"2003-04-09","LAUNCH_SITE":"FRENCH GUIANA","OWNER":"INTERNATIONAL TELECOMMUNICATIONS SATELLITE ORGANIZATION (INTELSAT)","ORBIT_TYPE":"Geosynchronous","OPERATIONAL_STATUS":"Operational (spare)","satInfo":{"lng":-111.07025041010392,"lat":-0.23827768633428761,"elevation":-8.807836563340697,"azimuth":66.07025041010391,"range":42660.82712283671,"height":35779.9742829978,"velocity":3.074709540736685},"x":-242,"y":91,"dx":-1.1053960333148594,"dy":-2.8691354742202346,"maxAlt":256,"minAlt":256},{"OBJECT_ID":"2003-013C","OBJECT_NAME":"ARIANE 5 R/B","NORAD_CAT_ID":"27716","OBJECT_TYPE":"ROCKET BODY","PERIOD":"642.759","INCLINATION":"1.672","APOGEE":"35741.946","PERIGEE":"844.443","ECCENTRICITY":"0.7072481","MEAN_MOTION":"2.24033989","TLE_LINE1":"1 27716U 03013C   16238.78943113 -.00000054  00000-0  15778-3 0  9997","TLE_LINE2":"2 27716   1.6720  39.0105 7072481  49.8617 298.5022  2.24033989109539","LAUNCH_DATE":"2003-04-09","LAUNCH_SITE":"FRENCH GUIANA","OWNER":"FRANCE","ORBIT_TYPE":"Highly Elliptical Orbit","OPERATIONAL_STATUS":"N/A, derelict rocket body","satInfo":{"lng":143.74329019037503,"lat":-1.4210736133616557,"elevation":-11.525980580061217,"azimuth":171.25670980962494,"range":36215.84963396085,"height":29118.295396946185,"velocity":2.5103361055232125},"x":123,"y":168,"dx":-2.024273159443481,"dy":1.4846230291390996,"maxAlt":256,"minAlt":5},{"OBJECT_ID":"2003-013D","OBJECT_NAME":"ARIANE 5 DEB (SYLDA)","NORAD_CAT_ID":"27717","OBJECT_TYPE":"DEBRIS","PERIOD":"647.393","INCLINATION":"1.9159","APOGEE":"35975.274","PERIGEE":"847.973","ECCENTRICITY":"0.7085043","MEAN_MOTION":"2.22430485","TLE_LINE1":"1 27717U 03013D   16238.81396130 -.00000134 +00000-0 -67986-2 0  9990","TLE_LINE2":"2 27717 001.9159 050.7015 7085043 022.7912 149.2820 02.22430485108767","LAUNCH_DATE":"2003-04-09","LAUNCH_SITE":"FRENCH GUIANA","OWNER":"FRANCE","ORBIT_TYPE":"Highly Elliptical Orbit","OPERATIONAL_STATUS":"N/A, space debris","satInfo":{"lng":63.814183217700595,"lat":-5.082658975336541,"elevation":-17.631990070038874,"azimuth":251.18581678229936,"range":29125.342202710297,"height":21488.352270666368,"velocity":3.541336342219008},"x":137,"y":-70,"dx":1.562734104888275,"dy":3.1778806154637316,"maxAlt":258,"minAlt":5},{"OBJECT_ID":"2003-014A","OBJECT_NAME":"ASIASAT 4","NORAD_CAT_ID":"27718","OBJECT_TYPE":"PAYLOAD","PERIOD":"1436.150","INCLINATION":"0.0092","APOGEE":"35793.544","PERIGEE":"35781.763","ECCENTRICITY":"0.0001397","MEAN_MOTION":"1.00268014","TLE_LINE1":"1 27718U 03014A   16238.80674259 -.00000387 +00000-0 +00000-0 0  9993","TLE_LINE2":"2 27718 000.0092 162.4200 0001397 284.8762 299.6986 01.00268014049004","LAUNCH_DATE":"2003-04-12","LAUNCH_SITE":"AIR FORCE EASTERN TEST RANGE","OWNER":"ASIASAT CORP","ORBIT_TYPE":"Geosynchronous","OPERATIONAL_STATUS":"Operational","satInfo":{"lng":78.76063858243525,"lat":0.7090911357086337,"elevation":-7.874114545034178,"azimuth":236.23936141756474,"range":42595.34219671907,"height":35818.821444975736,"velocity":3.0733181012652797},"x":252,"y":-52,"dx":0.5990149240980022,"dy":3.0143764317471513,"maxAlt":256,"minAlt":256},{"OBJECT_ID":"2003-020A","OBJECT_NAME":"HELLAS-SAT 2","NORAD_CAT_ID":"27811","OBJECT_TYPE":"PAYLOAD","PERIOD":"1436.056","INCLINATION":"0.0364","APOGEE":"35801.909","PERIGEE":"35769.688","ECCENTRICITY":"0.0003821","MEAN_MOTION":"1.00274632","TLE_LINE1":"1 27811U 03020A   16239.18626075  .00000124  00000-0  00000+0 0  9996","TLE_LINE2":"2 27811   0.0364 297.7863 0003821 224.0426 279.0937  1.00274632 48420","LAUNCH_DATE":"2003-05-13","LAUNCH_SITE":"AIR FORCE EASTERN TEST RANGE","OWNER":"GREECE","ORBIT_TYPE":"Geosynchronous","OPERATIONAL_STATUS":"Operational","satInfo":{"lng":98.8766913031535,"lat":0.3012865489648499,"elevation":-8.28176720290822,"azimuth":216.12330869684644,"range":42596.72770512516,"height":35774.96044203732,"velocity":3.074962339633899},"x":253,"y":38,"dx":-0.4744926973240653,"dy":3.0381326617435445,"maxAlt":256,"minAlt":256},{"OBJECT_ID":"2003-024A","OBJECT_NAME":"AMC-9 (GE-12)","NORAD_CAT_ID":"27820","OBJECT_TYPE":"PAYLOAD","PERIOD":"1436.104","INCLINATION":"0.0636","APOGEE":"35798.954","PERIGEE":"35774.523","ECCENTRICITY":"0.0002897","MEAN_MOTION":"1.00271278","TLE_LINE1":"1 27820U 03024A   16239.27851650 -.00000244  00000-0  00000+0 0  9993","TLE_LINE2":"2 27820   0.0636 285.0864 0002897 234.6528 192.4665  1.00271278 48413","LAUNCH_DATE":"2003-06-06","LAUNCH_SITE":"TYURATAM MISSILE AND SPACE COMPLEX","OWNER":"SOCIÉTÉ EUROPÉENNE DES SATELLITES","ORBIT_TYPE":"Geosynchronous","OPERATIONAL_STATUS":"Operational","satInfo":{"lng":-100.05721891346172,"lat":-0.08289375810550931,"elevation":-8.65270588519367,"azimuth":55.05721891346172,"range":42660.67717018477,"height":35797.037777612015,"velocity":3.074312416663876},"x":-255,"y":44,"dx":-0.5368720269911557,"dy":-3.027072060901109,"maxAlt":256,"minAlt":256},{"OBJECT_ID":"2003-028B","OBJECT_NAME":"OPTUS C1","NORAD_CAT_ID":"27831","OBJECT_TYPE":"PAYLOAD","PERIOD":"1436.098","INCLINATION":"0.0354","APOGEE":"35804.609","PERIGEE":"35768.634","ECCENTRICITY":"0.0004266","MEAN_MOTION":"1.00271694","TLE_LINE1":"1 27831U 03028B   16239.49261594 -.00000176  00000-0  00000+0 0  9999","TLE_LINE2":"2 27831   0.0354 220.8112 0004266 303.3875 144.3075  1.00271694 48408","LAUNCH_DATE":"2003-06-11","LAUNCH_SITE":"FRENCH GUIANA","OWNER":"AUSTRALIA","ORBIT_TYPE":"Geosynchronous","OPERATIONAL_STATUS":"Operational","satInfo":{"lng":-126.84774642993132,"lat":-0.8871928206187288,"elevation":-9.431351648933905,"azimuth":81.84774642993129,"range":42778.68973482424,"height":35827.35248084174,"velocity":3.0728680693391968},"x":-208,"y":153,"dx":-1.8427702985599717,"dy":-2.459007075693276,"maxAlt":256,"minAlt":256},{"OBJECT_ID":"2003-034A","OBJECT_NAME":"GALAXY 23 (TELSTAR 13)","NORAD_CAT_ID":"27854","OBJECT_TYPE":"PAYLOAD","PERIOD":"1436.089","INCLINATION":"0.0305","APOGEE":"35801.237","PERIGEE":"35771.662","ECCENTRICITY":"0.0003507","MEAN_MOTION":"1.00272309","TLE_LINE1":"1 27854U 03034A   16239.28876440 -.00000015  00000-0  00000+0 0  9992","TLE_LINE2":"2 27854   0.0305 129.2868 0003507  61.7739 126.8436  1.00272309 52629","LAUNCH_DATE":"2003-08-08","LAUNCH_SITE":"SEA LAUNCH","OWNER":"UNITED STATES OF AMERICA","ORBIT_TYPE":"Geosynchronous","OPERATIONAL_STATUS":"Operational","satInfo":{"lng":-106.68177916455649,"lat":-0.9245311627056201,"elevation":-9.475766742292329,"azimuth":61.681779164556474,"range":42742.92276046949,"height":35787.05595305781,"velocity":3.0743318748577355},"x":-248,"y":73,"dx":-0.8825051179071733,"dy":-2.944945023872929,"maxAlt":256,"minAlt":256},{"OBJECT_ID":"2003-034B","OBJECT_NAME":"BLOCK DM-SL R/B","NORAD_CAT_ID":"27855","OBJECT_TYPE":"ROCKET BODY","PERIOD":"641.020","INCLINATION":"0.2442","APOGEE":"35829.963","PERIGEE":"667.400","ECCENTRICITY":"0.713908","MEAN_MOTION":"2.24641683","TLE_LINE1":"1 27855U 03034B   16239.16795332 -.00000191  00000-0  55919-3 0  9998","TLE_LINE2":"2 27855   0.2442 223.9987 7139080 133.7561 352.8668  2.24641683107131","LAUNCH_DATE":"2003-08-08","LAUNCH_SITE":"SEA LAUNCH","OWNER":"SEA LAUNCH DEMO","ORBIT_TYPE":"Highly Elliptical Orbit","OPERATIONAL_STATUS":"N/A, derelict rocket body","satInfo":{"lng":33.74153270313768,"lat":0.05248414698767853,"elevation":-9.373320079133316,"azimuth":281.25846729686225,"range":38817.53922558632,"height":31921.130676064946,"velocity":2.150962030747511},"x":126,"y":-193,"dx":1.788636147540887,"dy":1.1947461610850862,"maxAlt":257,"minAlt":3},{"OBJECT_ID":"2003-043A","OBJECT_NAME":"EUTE 33A (EB 3)","NORAD_CAT_ID":"27948","OBJECT_TYPE":"PAYLOAD","PERIOD":"1436.136","INCLINATION":"1.7757","APOGEE":"35793.816","PERIGEE":"35780.914","ECCENTRICITY":"0.000153","MEAN_MOTION":"1.00269044","TLE_LINE1":"1 27948U 03043A   16239.00671532  .00000125  00000-0  00000+0 0  9992","TLE_LINE2":"2 27948   1.7757  79.4504 0001530 208.8982  79.5962  1.00269044 47403","LAUNCH_DATE":"2003-09-27","LAUNCH_SITE":"FRENCH GUIANA","OWNER":"EUROPEAN TELECOMMUNICATIONS SATELLITE ORGANIZATION (EUTELSAT)","ORBIT_TYPE":"Geosynchronous","OPERATIONAL_STATUS":"Operational","satInfo":{"lng":78.90815359870159,"lat":-1.8421861249909344,"elevation":-10.375177983863255,"azimuth":236.09184640129843,"range":42812.46024642208,"height":35756.07622170656,"velocity":3.075985061115752},"x":251,"y":-51,"dx":0.59176514117786,"dy":3.0185258179936154,"maxAlt":256,"minAlt":256}]